start=new Date('2023-04-23T00:00:00.000Z').valueOf();
sats=[{"REV_AT_EPOCH":"10648","EPHEMERIS_TYPE":"0","TLE_LINE2":"2 48587  53.0529 184.5652 0001511  75.5129 284.6027 15.06425366106482","GP_ID":"230593168","REF_FRAME":"TEME","MEAN_MOTION":"15.06425366","PERIOD":"95.591","MEAN_MOTION_DOT":"0.00025738","COUNTRY_CODE":"US","FILE":"3892285","OBJECT_TYPE":"PAYLOAD","CENTER_NAME":"EARTH","LAUNCH_DATE":"2021-05-15","TLE_LINE1":"1 48587U 21041AL  23112.61490113  .00025738  00000-0  17393-2 0  9994","SEMIMAJOR_AXIS":"6925.271","OBJECT_NAME":"STARLINK-2242","ELEMENT_SET_NO":"999","RA_OF_ASC_NODE":"184.5652","EPOCH":"2023-04-22T14:45:27.457632","PERIAPSIS":"546.089","RCS_SIZE":"LARGE","MEAN_MOTION_DDOT":"0.0000000000000","OBJECT_ID":"2021-041AL","TIME_SYSTEM":"UTC","APOAPSIS":"548.182","ARG_OF_PERICENTER":"75.5129","MEAN_ELEMENT_THEORY":"SGP4","MEAN_ANOMALY":"284.6027","SITE":"AFETR","BSTAR":"0.00173930000000","NORAD_CAT_ID":"48587","DECAY_DATE":null,"INCLINATION":"53.0529","ECCENTRICITY":"0.00015110","CLASSIFICATION_TYPE":"U"},{"OBJECT_ID":"2021-041AM","RCS_SIZE":"LARGE","MEAN_MOTION_DDOT":"0.0000000000000","RA_OF_ASC_NODE":"173.4648","EPOCH":"2023-04-22T20:37:03.152928","PERIAPSIS":"546.661","APOAPSIS":"547.692","TIME_SYSTEM":"UTC","SITE":"AFETR","BSTAR":"0.00100460000000","MEAN_ELEMENT_THEORY":"SGP4","MEAN_ANOMALY":"277.5857","ARG_OF_PERICENTER":"82.5217","CLASSIFICATION_TYPE":"U","ECCENTRICITY":"0.00007440","INCLINATION":"53.0523","DECAY_DATE":null,"NORAD_CAT_ID":"48588","REF_FRAME":"TEME","TLE_LINE2":"2 48588  53.0523 173.4648 0000744  82.5217 277.5857 15.06412062106663","GP_ID":"230593418","REV_AT_EPOCH":"10666","EPHEMERIS_TYPE":"0","FILE":"3892285","PERIOD":"95.591","MEAN_MOTION_DOT":"0.00014719","COUNTRY_CODE":"US","MEAN_MOTION":"15.06412062","CENTER_NAME":"EARTH","LAUNCH_DATE":"2021-05-15","OBJECT_TYPE":"PAYLOAD","ELEMENT_SET_NO":"999","OBJECT_NAME":"STARLINK-2244","SEMIMAJOR_AXIS":"6925.312","TLE_LINE1":"1 48588U 21041AM  23112.85906427  .00014719  00000-0  10046-2 0  9996"},{"ARG_OF_PERICENTER":"90.7231","BSTAR":"0.00119470000000","SITE":"AFETR","MEAN_ELEMENT_THEORY":"SGP4","MEAN_ANOMALY":"269.3939","ECCENTRICITY":"0.00015810","DECAY_DATE":null,"INCLINATION":"53.0519","NORAD_CAT_ID":"48589","CLASSIFICATION_TYPE":"U","RA_OF_ASC_NODE":"173.4861","EPOCH":"2023-04-22T20:31:45.422976","PERIAPSIS":"546.040","OBJECT_ID":"2021-041AN","RCS_SIZE":"LARGE","MEAN_MOTION_DDOT":"0.0000000000000","TIME_SYSTEM":"UTC","APOAPSIS":"548.230","OBJECT_TYPE":"PAYLOAD","CENTER_NAME":"EARTH","LAUNCH_DATE":"2021-05-15","OBJECT_NAME":"STARLINK-2245","SEMIMAJOR_AXIS":"6925.270","TLE_LINE1":"1 48589U 21041AN  23112.85538684  .00017571  00000-0  11947-2 0  9993","ELEMENT_SET_NO":"999","REV_AT_EPOCH":"10666","EPHEMERIS_TYPE":"0","REF_FRAME":"TEME","GP_ID":"230594170","TLE_LINE2":"2 48589  53.0519 173.4861 0001581  90.7231 269.3939 15.06425661106662","MEAN_MOTION":"15.06425661","FILE":"3892285","PERIOD":"95.591","MEAN_MOTION_DOT":"0.00017571","COUNTRY_CODE":"US"},{"ELEMENT_SET_NO":"999","OBJECT_NAME":"STARLINK-2248","TLE_LINE1":"1 48591U 21041AQ  23112.90605660  .00019558  00000-0  13294-2 0  9995","SEMIMAJOR_AXIS":"6925.446","LAUNCH_DATE":"2021-05-15","CENTER_NAME":"EARTH","OBJECT_TYPE":"PAYLOAD","FILE":"3892285","PERIOD":"95.594","MEAN_MOTION_DOT":"0.00019558","COUNTRY_CODE":"US","MEAN_MOTION":"15.06368364","REF_FRAME":"TEME","GP_ID":"230593921","TLE_LINE2":"2 48591  53.0518 173.2553 0000772  67.4493 292.6578 15.06368364107577","REV_AT_EPOCH":"10757","EPHEMERIS_TYPE":"0","CLASSIFICATION_TYPE":"U","ECCENTRICITY":"0.00007720","NORAD_CAT_ID":"48591","DECAY_DATE":null,"INCLINATION":"53.0518","SITE":"AFETR","BSTAR":"0.00132940000000","MEAN_ELEMENT_THEORY":"SGP4","MEAN_ANOMALY":"292.6578","ARG_OF_PERICENTER":"67.4493","TIME_SYSTEM":"UTC","APOAPSIS":"547.845","OBJECT_ID":"2021-041AQ","RCS_SIZE":"LARGE","MEAN_MOTION_DDOT":"0.0000000000000","EPOCH":"2023-04-22T21:44:43.290240","RA_OF_ASC_NODE":"173.2553","PERIAPSIS":"546.776"},{"PERIAPSIS":"546.360","RA_OF_ASC_NODE":"183.2377","EPOCH":"2023-04-22T21:59:18.541248","OBJECT_ID":"2021-041AR","MEAN_MOTION_DDOT":"0.0000000000000","RCS_SIZE":"MEDIUM","APOAPSIS":"547.871","TIME_SYSTEM":"UTC","ARG_OF_PERICENTER":"77.2727","BSTAR":"0.00138140000000","SITE":"AFETR","MEAN_ANOMALY":"282.8384","MEAN_ELEMENT_THEORY":"SGP4","ECCENTRICITY":"0.00010910","NORAD_CAT_ID":"48592","DECAY_DATE":null,"INCLINATION":"53.0522","CLASSIFICATION_TYPE":"U","REV_AT_EPOCH":"10653","EPHEMERIS_TYPE":"0","REF_FRAME":"TEME","GP_ID":"230592669","TLE_LINE2":"2 48592  53.0522 183.2377 0001091  77.2727 282.8384 15.06432046106532","MEAN_MOTION":"15.06432046","FILE":"3892285","COUNTRY_CODE":"US","MEAN_MOTION_DOT":"0.00020372","PERIOD":"95.590","OBJECT_TYPE":"PAYLOAD","CENTER_NAME":"EARTH","LAUNCH_DATE":"2021-05-15","OBJECT_NAME":"STARLINK-2249","TLE_LINE1":"1 48592U 21041AR  23112.91618682  .00020372  00000-0  13814-2 0  9999","SEMIMAJOR_AXIS":"6925.250","ELEMENT_SET_NO":"999"},{"TIME_SYSTEM":"UTC","APOAPSIS":"547.673","PERIAPSIS":"546.249","EPOCH":"2023-04-22T22:06:00.269280","RA_OF_ASC_NODE":"183.1905","OBJECT_ID":"2021-041AS","MEAN_MOTION_DDOT":"0.0000000000000","RCS_SIZE":"LARGE","ECCENTRICITY":"0.00010280","INCLINATION":"53.0524","DECAY_DATE":null,"NORAD_CAT_ID":"48593","CLASSIFICATION_TYPE":"U","ARG_OF_PERICENTER":"108.2226","BSTAR":"0.00204310000000","SITE":"AFETR","MEAN_ANOMALY":"251.8875","MEAN_ELEMENT_THEORY":"SGP4","MEAN_MOTION":"15.06482308","FILE":"3892285","COUNTRY_CODE":"US","PERIOD":"95.587","MEAN_MOTION_DOT":"0.00030350","REV_AT_EPOCH":"10653","EPHEMERIS_TYPE":"0","REF_FRAME":"TEME","TLE_LINE2":"2 48593  53.0524 183.1905 0001028 108.2226 251.8875 15.06482308106537","GP_ID":"230592919","OBJECT_NAME":"STARLINK-2250","TLE_LINE1":"1 48593U 21041AS  23112.92083645  .00030350  00000-0  20431-2 0  9996","SEMIMAJOR_AXIS":"6925.096","ELEMENT_SET_NO":"999","OBJECT_TYPE":"PAYLOAD","LAUNCH_DATE":"2021-05-15","CENTER_NAME":"EARTH"},{"REF_FRAME":"TEME","TLE_LINE2":"2 48594  53.0507 153.7440 0000816  98.5719 261.5363 15.06413298106945","GP_ID":"230593671","REV_AT_EPOCH":"10694","EPHEMERIS_TYPE":"0","FILE":"3892285","PERIOD":"95.591","MEAN_MOTION_DOT":"0.00014511","COUNTRY_CODE":"US","MEAN_MOTION":"15.06413298","CENTER_NAME":"EARTH","LAUNCH_DATE":"2021-05-15","OBJECT_TYPE":"PAYLOAD","ELEMENT_SET_NO":"999","OBJECT_NAME":"STARLINK-2251","TLE_LINE1":"1 48594U 21041AT  23112.81668165  .00014511  00000-0  99071-3 0  9999","SEMIMAJOR_AXIS":"6925.308","OBJECT_ID":"2021-041AT","RCS_SIZE":"LARGE","MEAN_MOTION_DDOT":"0.0000000000000","EPOCH":"2023-04-22T19:36:01.294560","RA_OF_ASC_NODE":"153.7440","PERIAPSIS":"546.608","TIME_SYSTEM":"UTC","APOAPSIS":"547.738","SITE":"AFETR","BSTAR":"0.00099071000000","MEAN_ELEMENT_THEORY":"SGP4","MEAN_ANOMALY":"261.5363","ARG_OF_PERICENTER":"98.5719","CLASSIFICATION_TYPE":"U","ECCENTRICITY":"0.00008160","DECAY_DATE":null,"NORAD_CAT_ID":"48594","INCLINATION":"53.0507"},{"REF_FRAME":"TEME","TLE_LINE2":"2 48595  53.0517 184.7615 0001085 109.0198 251.0908 15.06398557107752","GP_ID":"230562007","EPHEMERIS_TYPE":"0","REV_AT_EPOCH":"10775","FILE":"3892071","MEAN_MOTION_DOT":"0.00013858","PERIOD":"95.592","COUNTRY_CODE":"US","MEAN_MOTION":"15.06398557","CENTER_NAME":"EARTH","LAUNCH_DATE":"2021-05-15","OBJECT_TYPE":"PAYLOAD","ELEMENT_SET_NO":"999","OBJECT_NAME":"STARLINK-2252","SEMIMAJOR_AXIS":"6925.353","TLE_LINE1":"1 48595U 21041AU  23112.57063973  .00013858  00000-0  94740-3 0  9990","OBJECT_ID":"2021-041AU","RCS_SIZE":"LARGE","MEAN_MOTION_DDOT":"0.0000000000000","EPOCH":"2023-04-22T13:41:43.272672","RA_OF_ASC_NODE":"184.7615","PERIAPSIS":"546.467","APOAPSIS":"547.969","TIME_SYSTEM":"UTC","BSTAR":"0.00094740000000","SITE":"AFETR","MEAN_ELEMENT_THEORY":"SGP4","MEAN_ANOMALY":"251.0908","ARG_OF_PERICENTER":"109.0198","CLASSIFICATION_TYPE":"U","ECCENTRICITY":"0.00010850","INCLINATION":"53.0517","DECAY_DATE":null,"NORAD_CAT_ID":"48595"},{"APOAPSIS":"547.960","TIME_SYSTEM":"UTC","RCS_SIZE":"LARGE","MEAN_MOTION_DDOT":"0.0000000000000","OBJECT_ID":"2021-041AV","RA_OF_ASC_NODE":"183.1760","EPOCH":"2023-04-22T22:11:16.704960","PERIAPSIS":"546.307","CLASSIFICATION_TYPE":"U","DECAY_DATE":null,"NORAD_CAT_ID":"48596","INCLINATION":"53.0507","ECCENTRICITY":"0.00011940","MEAN_ELEMENT_THEORY":"SGP4","MEAN_ANOMALY":"284.9866","BSTAR":"0.00145010000000","SITE":"AFETR","ARG_OF_PERICENTER":"75.1255","PERIOD":"95.590","MEAN_MOTION_DOT":"0.00021399","COUNTRY_CODE":"US","FILE":"3892285","MEAN_MOTION":"15.06426084","TLE_LINE2":"2 48596  53.0507 183.1760 0001194  75.1255 284.9866 15.06426084106994","GP_ID":"230593169","REF_FRAME":"TEME","REV_AT_EPOCH":"10699","EPHEMERIS_TYPE":"0","ELEMENT_SET_NO":"999","SEMIMAJOR_AXIS":"6925.269","TLE_LINE1":"1 48596U 21041AV  23112.92449890  .00021399  00000-0  14501-2 0  9991","OBJECT_NAME":"STARLINK-2253","CENTER_NAME":"EARTH","LAUNCH_DATE":"2021-05-15","OBJECT_TYPE":"PAYLOAD"},{"EPOCH":"2023-04-22T22:21:53.974080","RA_OF_ASC_NODE":"183.1429","PERIAPSIS":"546.238","OBJECT_ID":"2021-041AW","RCS_SIZE":"LARGE","MEAN_MOTION_DDOT":"0.0000000000000","TIME_SYSTEM":"UTC","APOAPSIS":"548.019","ARG_OF_PERICENTER":"91.8611","BSTAR":"0.00116560000000","SITE":"AFETR","MEAN_ELEMENT_THEORY":"SGP4","MEAN_ANOMALY":"268.2525","ECCENTRICITY":"0.00012860","DECAY_DATE":null,"NORAD_CAT_ID":"48597","INCLINATION":"53.0532","CLASSIFICATION_TYPE":"U","REV_AT_EPOCH":"10780","EPHEMERIS_TYPE":"0","REF_FRAME":"TEME","TLE_LINE2":"2 48597  53.0532 183.1429 0001286  91.8611 268.2525 15.06427853107801","GP_ID":"230593419","MEAN_MOTION":"15.06427853","FILE":"3892285","PERIOD":"95.590","MEAN_MOTION_DOT":"0.00017136","COUNTRY_CODE":"US","OBJECT_TYPE":"PAYLOAD","LAUNCH_DATE":"2021-05-15","CENTER_NAME":"EARTH","OBJECT_NAME":"STARLINK-2255","SEMIMAJOR_AXIS":"6925.263","TLE_LINE1":"1 48597U 21041AW  23112.93187470  .00017136  00000-0  11656-2 0  9998","ELEMENT_SET_NO":"999"}];
